CCSDS_OMM_VERS = 2.0
CREATION_DATE  = 
ORIGINATOR     = 

OBJECT_NAME    = SL-16 R/B
OBJECT_ID      = 1998-043G
CENTER_NAME    = EARTH
REF_FRAME      = TEME
TIME_SYSTEM    = UTC
MEAN_ELEMENT_THEORY = SGP/SGP4

EPOCH          = 2026-01-12T17:46:54.351840
MEAN_MOTION    = 14.26034206
ECCENTRICITY   = .0009914
INCLINATION    = 98.8166
RA_OF_ASC_NODE = 325.7394
ARG_OF_PERICENTER = 170.6851
MEAN_ANOMALY   = 189.4514

EPHEMERIS_TYPE = 0
CLASSIFICATION_TYPE = U
NORAD_CAT_ID   = 25400
ELEMENT_SET_NO = 999
REV_AT_EPOCH   = 43101
BSTAR          = .41628E-4
MEAN_MOTION_DOT = .54E-6
MEAN_MOTION_DDOT = 0

CCSDS_OMM_VERS = 2.0
CREATION_DATE  = 
ORIGINATOR     = 

OBJECT_NAME    = SL-16 R/B
OBJECT_ID      = 1998-045B
CENTER_NAME    = EARTH
REF_FRAME      = TEME
TIME_SYSTEM    = UTC
MEAN_ELEMENT_THEORY = SGP/SGP4

EPOCH          = 2026-01-12T18:32:59.268480
MEAN_MOTION    = 14.16180040
ECCENTRICITY   = .0005336
INCLINATION    = 71.0121
RA_OF_ASC_NODE = 299.1650
ARG_OF_PERICENTER = 120.3716
MEAN_ANOMALY   = 239.7935

EPHEMERIS_TYPE = 0
CLASSIFICATION_TYPE = U
NORAD_CAT_ID   = 25407
ELEMENT_SET_NO = 999
REV_AT_EPOCH   = 41918
BSTAR          = .28332E-5
MEAN_MOTION_DOT = -.42E-6
MEAN_MOTION_DDOT = 0

CCSDS_OMM_VERS = 2.0
CREATION_DATE  = 
ORIGINATOR     = 

OBJECT_NAME    = ISS (ZARYA)
OBJECT_ID      = 1998-067A
CENTER_NAME    = EARTH
REF_FRAME      = TEME
TIME_SYSTEM    = UTC
MEAN_ELEMENT_THEORY = SGP/SGP4

EPOCH          = 2026-01-12T04:14:44.874528
MEAN_MOTION    = 15.49250518
ECCENTRICITY   = .00077234
INCLINATION    = 51.6333
RA_OF_ASC_NODE = 351.7881
ARG_OF_PERICENTER = 8.9804
MEAN_ANOMALY   = 351.1321

EPHEMERIS_TYPE = 0
CLASSIFICATION_TYPE = U
NORAD_CAT_ID   = 25544
ELEMENT_SET_NO = 999
REV_AT_EPOCH   = 54757
BSTAR          = .17470929E-3
MEAN_MOTION_DOT = .9276E-4
MEAN_MOTION_DDOT = 0

CCSDS_OMM_VERS = 2.0
CREATION_DATE  = 
ORIGINATOR     = 

OBJECT_NAME    = CZ-4B R/B
OBJECT_ID      = 1999-025C
CENTER_NAME    = EARTH
REF_FRAME      = TEME
TIME_SYSTEM    = UTC
MEAN_ELEMENT_THEORY = SGP/SGP4

EPOCH          = 2026-01-12T17:31:09.463296
MEAN_MOTION    = 14.18251976
ECCENTRICITY   = .003778
INCLINATION    = 98.6728
RA_OF_ASC_NODE = 58.3103
ARG_OF_PERICENTER = 144.6619
MEAN_ANOMALY   = 325.7302

EPHEMERIS_TYPE = 0
CLASSIFICATION_TYPE = U
NORAD_CAT_ID   = 25732
ELEMENT_SET_NO = 999
REV_AT_EPOCH   = 38023
BSTAR          = .41937E-4
MEAN_MOTION_DOT = .44E-6
MEAN_MOTION_DDOT = 0

CCSDS_OMM_VERS = 2.0
CREATION_DATE  = 
ORIGINATOR     = 

OBJECT_NAME    = OKEAN-O
OBJECT_ID      = 1999-039A
CENTER_NAME    = EARTH
REF_FRAME      = TEME
TIME_SYSTEM    = UTC
MEAN_ELEMENT_THEORY = SGP/SGP4

EPOCH          = 2026-01-12T18:00:28.877472
MEAN_MOTION    = 14.80224863
ECCENTRICITY   = .000165
INCLINATION    = 97.9558
RA_OF_ASC_NODE = 73.1776
ARG_OF_PERICENTER = 109.4542
MEAN_ANOMALY   = 250.6848

EPHEMERIS_TYPE = 0
CLASSIFICATION_TYPE = U
NORAD_CAT_ID   = 25860
ELEMENT_SET_NO = 999
REV_AT_EPOCH   = 42611
BSTAR          = .10315E-3
MEAN_MOTION_DOT = .732E-5
MEAN_MOTION_DDOT = 0

CCSDS_OMM_VERS = 2.0
CREATION_DATE  = 
ORIGINATOR     = 

OBJECT_NAME    = SL-16 R/B
OBJECT_ID      = 1999-039B
CENTER_NAME    = EARTH
REF_FRAME      = TEME
TIME_SYSTEM    = UTC
MEAN_ELEMENT_THEORY = SGP/SGP4

EPOCH          = 2026-01-12T17:10:38.031744
MEAN_MOTION    = 14.81639323
ECCENTRICITY   = .0016154
INCLINATION    = 98.0081
RA_OF_ASC_NODE = 71.8624
ARG_OF_PERICENTER = 80.2382
MEAN_ANOMALY   = 280.0654

EPHEMERIS_TYPE = 0
CLASSIFICATION_TYPE = U
NORAD_CAT_ID   = 25861
ELEMENT_SET_NO = 999
REV_AT_EPOCH   = 42857
BSTAR          = .74702E-4
MEAN_MOTION_DOT = .535E-5
MEAN_MOTION_DDOT = 0

CCSDS_OMM_VERS = 2.0
CREATION_DATE  = 
ORIGINATOR     = 

OBJECT_NAME    = DELTA 2 R/B
OBJECT_ID      = 1999-041E
CENTER_NAME    = EARTH
REF_FRAME      = TEME
TIME_SYSTEM    = UTC
MEAN_ELEMENT_THEORY = SGP/SGP4

EPOCH          = 2026-01-12T19:07:42.830400
MEAN_MOTION    = 14.11541304
ECCENTRICITY   = .0503708
INCLINATION    = 51.7604
RA_OF_ASC_NODE = 164.4585
ARG_OF_PERICENTER = 183.3160
MEAN_ANOMALY   = 176.4385

EPHEMERIS_TYPE = 0
CLASSIFICATION_TYPE = U
NORAD_CAT_ID   = 25876
ELEMENT_SET_NO = 999
REV_AT_EPOCH   = 35513
BSTAR          = .52278E-3
MEAN_MOTION_DOT = .3018E-4
MEAN_MOTION_DDOT = 0

CCSDS_OMM_VERS = 2.0
CREATION_DATE  = 
ORIGINATOR     = 

OBJECT_NAME    = HELIOS 1B
OBJECT_ID      = 1999-064A
CENTER_NAME    = EARTH
REF_FRAME      = TEME
TIME_SYSTEM    = UTC
MEAN_ELEMENT_THEORY = SGP/SGP4

EPOCH          = 2026-01-12T16:22:42.051360
MEAN_MOTION    = 14.87433880
ECCENTRICITY   = .0000487
INCLINATION    = 98.1743
RA_OF_ASC_NODE = 273.2675
ARG_OF_PERICENTER = 128.5922
MEAN_ANOMALY   = 231.5336

EPHEMERIS_TYPE = 0
CLASSIFICATION_TYPE = U
NORAD_CAT_ID   = 25977
ELEMENT_SET_NO = 999
REV_AT_EPOCH   = 67693
BSTAR          = .19949E-3
MEAN_MOTION_DOT = .1747E-4
MEAN_MOTION_DDOT = 0

CCSDS_OMM_VERS = 2.0
CREATION_DATE  = 
ORIGINATOR     = 

OBJECT_NAME    = TERRA
OBJECT_ID      = 1999-068A
CENTER_NAME    = EARTH
REF_FRAME      = TEME
TIME_SYSTEM    = UTC
MEAN_ELEMENT_THEORY = SGP/SGP4

EPOCH          = 2026-01-12T19:53:03.950016
MEAN_MOTION    = 14.60942913
ECCENTRICITY   = .0002512
INCLINATION    = 97.9705
RA_OF_ASC_NODE = 68.3652
ARG_OF_PERICENTER = 29.5290
MEAN_ANOMALY   = 29.1985

EPHEMERIS_TYPE = 0
CLASSIFICATION_TYPE = U
NORAD_CAT_ID   = 25994
ELEMENT_SET_NO = 999
REV_AT_EPOCH   = 38692
BSTAR          = .96272E-4
MEAN_MOTION_DOT = .427E-5
MEAN_MOTION_DDOT = 0

CCSDS_OMM_VERS = 2.0
CREATION_DATE  = 
ORIGINATOR     = 

OBJECT_NAME    = SL-16 R/B
OBJECT_ID      = 2000-006B
CENTER_NAME    = EARTH
REF_FRAME      = TEME
TIME_SYSTEM    = UTC
MEAN_ELEMENT_THEORY = SGP/SGP4

EPOCH          = 2026-01-12T20:15:56.721600
MEAN_MOTION    = 14.15814594
ECCENTRICITY   = .0018997
INCLINATION    = 71.0006
RA_OF_ASC_NODE = 215.2575
ARG_OF_PERICENTER = 267.0219
MEAN_ANOMALY   = 92.8730

EPHEMERIS_TYPE = 0
CLASSIFICATION_TYPE = U
NORAD_CAT_ID   = 26070
ELEMENT_SET_NO = 999
REV_AT_EPOCH   = 34065
BSTAR          = -.99955E-4
MEAN_MOTION_DOT = -.245E-5
MEAN_MOTION_DDOT = 0

CCSDS_OMM_VERS = 2.0
CREATION_DATE  = 
ORIGINATOR     = 

OBJECT_NAME    = TITAN 4B R/B
OBJECT_ID      = 2000-047B
CENTER_NAME    = EARTH
REF_FRAME      = TEME
TIME_SYSTEM    = UTC
MEAN_ELEMENT_THEORY = SGP/SGP4

EPOCH          = 2026-01-12T18:22:02.388288
MEAN_MOTION    = 15.09039755
ECCENTRICITY   = .0037101
INCLINATION    = 67.9878
RA_OF_ASC_NODE = 197.7034
ARG_OF_PERICENTER = 106.0100
MEAN_ANOMALY   = 254.5140

EPHEMERIS_TYPE = 0
CLASSIFICATION_TYPE = U
NORAD_CAT_ID   = 26474
ELEMENT_SET_NO = 999
REV_AT_EPOCH   = 38447
BSTAR          = .21012E-3
MEAN_MOTION_DOT = .3251E-4
MEAN_MOTION_DDOT = 0

CCSDS_OMM_VERS = 2.0
CREATION_DATE  = 
ORIGINATOR     = 

OBJECT_NAME    = ENVISAT
OBJECT_ID      = 2002-009A
CENTER_NAME    = EARTH
REF_FRAME      = TEME
TIME_SYSTEM    = UTC
MEAN_ELEMENT_THEORY = SGP/SGP4

EPOCH          = 2026-01-12T20:07:55.917696
MEAN_MOTION    = 14.39012809
ECCENTRICITY   = .0001134
INCLINATION    = 98.3641
RA_OF_ASC_NODE = 327.7982
ARG_OF_PERICENTER = 91.7269
MEAN_ANOMALY   = 284.2940

EPHEMERIS_TYPE = 0
CLASSIFICATION_TYPE = U
NORAD_CAT_ID   = 27386
ELEMENT_SET_NO = 999
REV_AT_EPOCH   = 25114
BSTAR          = .50063E-4
MEAN_MOTION_DOT = .112E-5
MEAN_MOTION_DDOT = 0

