SL-16 R/B               
1 25400U 98043G   26012.74090685  .00000054  00000+0  41628-4 0  9998
2 25400  98.8166 325.7394 0009914 170.6851 189.4514 14.26034206431014
SL-16 R/B               
1 25407U 98045B   26012.77290820 -.00000042  00000+0  28332-5 0  9999
2 25407  71.0121 299.1650 0005336 120.3716 239.7935 14.16180040419187
ISS (ZARYA)             
1 25544U 98067A   26012.17690827  .00009276  00000+0  17471-3 0  9997
2 25544  51.6333 351.7881 0007723   8.9804 351.1321 15.49250518547578
CZ-4B R/B               
1 25732U 99025C   26012.72997064  .00000044  00000+0  41937-4 0  9994
2 25732  98.6728  58.3103 0037780 144.6619 325.7302 14.18251976380239
OKEAN-O                 
1 25860U 99039A   26012.75033423  .00000732  00000+0  10315-3 0  9993
2 25860  97.9558  73.1776 0001650 109.4542 250.6848 14.80224863426119
SL-16 R/B               
1 25861U 99039B   26012.71571796  .00000535  00000+0  74702-4 0  9992
2 25861  98.0081  71.8624 0016154  80.2382 280.0654 14.81639323428579
DELTA 2 R/B             
1 25876U 99041E   26012.79702350  .00003018  00000+0  52278-3 0  9993
2 25876  51.7604 164.4585 0503708 183.3160 176.4385 14.11541304355136
HELIOS 1B               
1 25977U 99064A   26012.68243115  .00001747  00000+0  19949-3 0  9992
2 25977  98.1743 273.2675 0000487 128.5922 231.5336 14.87433880676934
TERRA                   
1 25994U 99068A   26012.82851794  .00000427  00000+0  96272-4 0  9998
2 25994  97.9705  68.3652 0002512  29.5290  29.1985 14.60942913386926
SL-16 R/B               
1 26070U 00006B   26012.84440650 -.00000245  00000+0 -99955-4 0  9996
2 26070  71.0006 215.2575 0018997 267.0219  92.8730 14.15814594340658
TITAN 4B R/B            
1 26474U 00047B   26012.76530542  .00003251  00000+0  21012-3 0  9996
2 26474  67.9878 197.7034 0037101 106.0100 254.5140 15.09039755384472
ENVISAT                 
1 27386U 02009A   26012.83884164  .00000112  00000+0  50063-4 0  9991
2 27386  98.3641 327.7982 0001134  91.7269 284.2940 14.39012809251149
